PROBA-1                 
1 26958U 01049B   26172.51752390  .00001532  00000+0  10192-3 0  9990
2 26958  97.9594 181.2016 0056365 107.7234 253.0156 15.07505285344273
CUTE-1 (CO-55)          
1 27844U 03031E   26170.56610412  .00000202  00000+0  10624-3 0  9992
2 27844  98.6736 179.0951 0009689 171.1603 188.9749 14.24336935192018
CUBESAT XI-IV (CO-57)   
1 27848U 03031J   26170.97745452  .00000169  00000+0  93103-4 0  9990
2 27848  98.6765 179.2116 0009219 188.6492 171.4529 14.23622052191779
APRIZESAT 4             
1 35684U 09041D   26170.75201161  .00000445  00000+0  59830-4 0  9990
2 35684  98.1412 246.1237 0042243 314.5541  45.2225 14.83882094911745
APRIZESAT 3             
1 35686U 09041F   26171.37583324  .00001553  00000+0  13805-3 0  9997
2 35686  98.2069 324.7522 0062797  57.4441 303.2823 14.96251370916853
PROBA-2                 
1 36037U 09059B   26171.40414822  .00000114  00000+0  37079-4 0  9999
2 36037  98.2451 354.7122 0011942 270.9830  88.9999 14.54863494881995
APRIZESAT 5             
1 37792U 11044E   26171.38517685  .00000822  00000+0  11100-3 0  9995
2 37792  98.2452 104.5162 0052090 354.0370   6.0215 14.81081854799264
APRIZESAT 6             
1 37793U 11044F   26171.34143514  .00000569  00000+0  87454-4 0  9992
2 37793  98.2361  81.9054 0044455  76.2520  40.3130 14.76919894797610
PROBA-V                 
1 39159U 13021A   26171.42253878  .00000052  00000+0  40931-4 0  9997
2 39159  98.3585 149.8695 0005260 115.9586 244.2136 14.23597564681572
APRIZESAT 7             
1 39416U 13066A   26171.44113595  .00000692  00000+0  73936-4 0  9996
2 39416  97.7709 124.6143 0035260 198.2119 161.7840 14.91569653681711
APRIZESAT 8             
1 39425U 13066K   26171.43724441  .00000674  00000+0  79076-4 0  9994
2 39425  97.8221 118.8597 0044329 275.4956  84.1205 14.87657684680159
BUGSAT-1 (TITA)         
1 40014U 14033E   26172.52571586  .00004787  00000+0  25336-3 0  9994
2 40014  98.0425 265.3280 0028348 163.8329 196.3813 15.15627199656499
SAUDISAT 4              
1 40016U 14033G   26171.36507205  .00000472  00000+0  68801-4 0  9996
2 40016  97.7587 317.3897 0046061  63.9529 296.6414 14.79548154646540
APRIZESAT 9             
1 40018U 14033J   26171.32982182  .00000543  00000+0  87161-4 0  9994
2 40018  97.9066 304.4516 0065933 189.0281 170.9748 14.74218164644020
APRIZESAT 10            
1 40019U 14033K   26171.32393782  .00000346  00000+0  62405-4 0  9992
2 40019  97.9654 298.2134 0077423 263.6442  95.5943 14.70884779642715
TECHDEMOSAT-1 (TDS-1)   
1 40076U 14037H   26170.93560842  .00007129  00000+0  40428-3 0  9994
2 40076  98.3818 163.4207 0004661 253.6503 106.4213 15.13326666648644
TECHNOSAT               
1 42829U 17042E   26171.44071003  .00002691  00000+0  19322-3 0  9992
2 42829  97.4297 328.9745 0019198  84.0647 276.2768 15.04979783487190
FLYING LAPTOP           
1 42831U 17042G   26172.51823965  .00002809  00000+0  22268-3 0  9990
2 42831  97.4711 327.8846 0019774 107.8494 252.4889 15.01169766487108
HAWK-A                  
1 43765U 18099H   26170.71081534  .00004986  00000+0  20173-3 0  9999
2 43765  97.3908 222.9140 0033056 276.5231  83.2244 15.24666904413482
HAWK-B                  
1 43794U 18099AN  26171.12961070  .00004571  00000+0  19590-3 0  9990
2 43794  97.3956 222.7361 0030342 294.0424  65.7638 15.22851797413480
HAWK-C                  
1 43799U 18099AT  26171.40194090  .00005991  00000+0  21642-3 0  9994
2 43799  97.3884 224.5241 0038722 273.8819  85.7994 15.28139576414405
SALSAT                  
1 46495U 20068K   26170.95810387  .00006379  00000+0  22355-3 0  9995
2 46495  97.8854 174.1914 0007892 296.5001  63.5428 15.29832652315782
HAWK-2C                 
1 47502U 21006CT  26171.15159575  .00005134  00000+0  15492-3 0  9998
2 47502  97.2275 215.4025 0007027 175.4845 184.6464 15.34692888299952
HAWK-2A                 
1 47505U 21006CW  26171.15405930  .00005164  00000+0  15576-3 0  9996
2 47505  97.2316 216.0844 0006465 178.2900 181.8366 15.34707718299954
HAWK-2B                 
1 47508U 21006CZ  26171.08422452  .00006034  00000+0  18106-3 0  9998
2 47508  97.2187 214.3431 0007051 176.8619 183.2670 15.34799117299946
HAWK-3B                 
1 48931U 21059BE  26171.44797828  .00040680  00000+0  34162-3 0  9994
2 48931  97.6656   8.4645 0003164 313.2941  46.8056 15.69810287278362
HAWK-3C                 
1 48948U 21059BX  26170.49147182  .00044376  00000+0  37360-3 0  9997
2 48948  97.6775  13.1066 0003519 320.4197  39.6807 15.69730324278210
HAWK-3A                 
1 48957U 21059CG  26171.44749692  .00037993  00000+0  31924-3 0  9994
2 48957  97.6721  11.3579 0003334 317.4504  42.6499 15.69808898278362
HAWK-5C                 
1 52754U 22057Y   26171.39803269  .00015869  00000+0  27008-3 0  9994
2 52754  97.6611 331.2719 0004806  73.7971 286.3809 15.51490259226842
HAWK-5B                 
1 52756U 22057AA  26171.39787853  .00015995  00000+0  27217-3 0  9998
2 52756  97.6617 329.6212 0005480  66.4808 293.7018 15.51491667226844
